0 YAOGAN 1 DEB
1 36364U 06015H   13281.79912226  .00007850  00000-0  66166-3 0  1605
2 36364 097.9236 294.7299 0023186 041.1948 011.4391 14.98258284199963
0 YAOGAN 1 DEB
1 36364U 06015H   13282.48783128  .00011214  00000-0  94190-3 0  1617
2 36364 097.9240 295.4291 0023088 039.1172 125.9427 14.98284366200060
0 YAOGAN 1 DEB
1 36364U 06015H   13283.48942771  .00010236  00000-0  86010-3 0  1625
2 36364 097.9244 296.4459 0023005 035.9912 128.1746 14.98297527200215
0 YAOGAN 1 DEB
1 36364U 06015H   13285.80604113  .00008660  00000-0  72803-3 0  1643
2 36364 097.9245 298.7983 0022791 028.4802 023.6173 14.98331943200561
0 YAOGAN 1 DEB
1 36364U 06015H   13286.80776698  .00008957  00000-0  75254-3 0  1655
2 36364 097.9243 299.8157 0022641 025.0679 027.0271 14.98346337200710
0 YAOGAN 1 DEB
1 36364U 06015H   13287.81906477  .00011916  00000-0  99860-3 0  1666
2 36364 097.9239 300.8427 0022507 021.7583 081.9908 14.98365607200869
0 YAOGAN 1 DEB
1 36364U 06015H   13289.14320704  .00011588  00000-0  97065-3 0  1678
2 36364 097.9234 302.1875 0022332 017.2674 024.7197 14.98395091201050
0 YAOGAN 1 DEB
1 36364U 06015H   13290.14485896  .00010737  00000-0  89954-3 0  1688
2 36364 097.9229 303.2047 0022191 013.8153 027.9993 14.98411211201203
0 YAOGAN 1 DEB
1 36364U 06015H   13291.15072253  .00009374  00000-0  78582-3 0  1690
2 36364 097.9225 304.2260 0022042 010.3583 054.0503 14.98430600201369
0 YAOGAN 1 DEB
1 36364U 06015H   13292.36372106  .00009563  00000-0  80123-3 0  1700
2 36364 097.9221 305.4576 0021845 005.9999 117.7524 14.98450312201541
0 YAOGAN 1 DEB
1 36364U 06015H   13294.50724534  .00010767  00000-0  90061-3 0  1726
2 36364 097.9216 307.6339 0021578 358.3453 161.4703 14.98482126201867
0 YAOGAN 1 DEB
1 36364U 06015H   13295.50888478  .00011524  00000-0  96308-3 0  1738
2 36364 097.9215 308.6508 0021461 354.5858 165.3072 14.98499982202011
